norad_id,name,regime,epoch,line1,line2,inclination,eccentricity,mean_motion,raan,arg_pericenter,mean_anomaly
40349,O3B FM11,MEO,23025.45024834,1 40349U 14083B   23025.45024834 -.00000021  00000-0  00000-0 0    16,2 40349   0.0539   0.1895 0003168 315.8120  43.9671  5.00115372147949,0.0539,0.0003168,5.00115372,0.1895,315.812,43.9671
40349,O3B FM11,MEO,23026.24981082,1 40349U 14083B   23026.24981082 -.00000021  00000-0  00000-0 0    11,2 40349   0.0539   0.1256 0003171 316.5622  43.2811  5.00115396147988,0.0539,0.0003171,5.00115396,0.1256,316.5622,43.2811
40349,O3B FM11,MEO,23029.64795241,1 40349U 14083B   23029.64795241 -.00000023  00000-0  00000-0 0    10,2 40349   0.0539 359.8322 0003183 320.0165  40.1221  5.00115438148159,0.0539,0.0003183,5.00115438,359.8322,320.0165,40.1221
40349,O3B FM11,MEO,23029.84784258,1 40349U 14083B   23029.84784258 -.00000023  00000-0  00000+0 0  6507,2 40349   0.0539 359.8672 0003183 320.0326  40.0710  5.00115475148317,0.0539,0.0003183,5.00115475,359.8672,320.0326,40.071
40349,O3B FM11,MEO,23030.24762414,1 40349U 14083B   23030.24762414 -.00000023  00000-0  00000-0 0    14,2 40349   0.0539 359.8368 0003184 320.2442  39.8898  5.00115458148180,0.0539,0.0003184,5.00115458,359.8368,320.2442,39.8898
40349,O3B FM11,MEO,23031.44696805,1 40349U 14083B   23031.44696805 -.00000024  00000-0  00000-0 0    18,2 40349   0.0539 359.6985 0003186 321.3381  38.9347  5.00115470148249,0.0539,0.0003186,5.0011547,359.6985,321.3381,38.9347
40349,O3B FM11,MEO,23032.44642122,1 40349U 14083B   23032.44642122 -.00000025  00000-0  00000-0 0    13,2 40349   0.0540 359.6366 0003188 322.1773  38.1576  5.00115483148295,0.054,0.0003188,5.00115483,359.6366,322.1773,38.1576
40349,O3B FM11,MEO,23033.24598369,1 40349U 14083B   23033.24598369 -.00000025  00000-0  00000-0 0    15,2 40349   0.0540 359.5707 0003190 323.0004  37.4008  5.00115499148337,0.054,0.000319,5.00115499,359.5707,323.0004,37.4008
40349,O3B FM11,MEO,23034.04554642,1 40349U 14083B   23034.04554642 -.00000025  00000-0  00000+0 0  6510,2 40349   0.0539 359.4554 0003193 323.8022  36.7145  5.00115491148522,0.0539,0.0003193,5.00115491,359.4554,323.8022,36.7145
40349,O3B FM11,MEO,23034.44532768,1 40349U 14083B   23034.44532768 -.00000025  00000-0  00000-0 0    19,2 40349   0.0539 359.4320 0003194 324.2019  36.3384  5.00115496148385,0.0539,0.0003194,5.00115496,359.432,324.2019,36.3384
40349,O3B FM11,MEO,23035.24489024,1 40349U 14083B   23035.24489024 -.00000025  00000-0  00000-0 0    14,2 40349   0.0540 359.4219 0003206 325.2275  35.3233  5.00115507148434,0.054,0.0003206,5.00115507,359.4219,325.2275,35.3233
40349,O3B FM11,MEO,23035.84456207,1 40349U 14083B   23035.84456207 -.00000024  00000-0  00000-0 0    16,2 40349   0.0539 359.3393 0003207 325.8370  34.7967  5.00115519148459,0.0539,0.0003207,5.00115519,359.3393,325.837,34.7967
40349,O3B FM11,MEO,23036.24434348,1 40349U 14083B   23036.24434348 -.00000023  00000-0  00000-0 0    12,2 40349   0.0539 359.3071 0003210 326.3225  34.3438  5.00115515148478,0.0539,0.000321,5.00115515,359.3071,326.3225,34.3438
40349,O3B FM11,MEO,23036.84401578,1 40349U 14083B   23036.84401578 -.00000022  00000-0  00000-0 0    16,2 40349   0.0539 359.2652 0003212 326.9387  33.7698  5.00115493148509,0.0539,0.0003212,5.00115493,359.2652,326.9387,33.7698
40349,O3B FM11,MEO,23037.44368778,1 40349U 14083B   23037.44368778 -.00000021  00000-0  00000-0 0    16,2 40349   0.0540 359.2125 0003214 327.6049  33.1568  5.00115496148537,0.054,0.0003214,5.00115496,359.2125,327.6049,33.1568
40349,O3B FM11,MEO,23037.84346921,1 40349U 14083B   23037.84346921 -.00000020  00000-0  00000-0 0    15,2 40349   0.0539 359.1858 0003214 327.9804  32.8083  5.00115490148553,0.0539,0.0003214,5.0011549,359.1858,327.9804,32.8083
40349,O3B FM11,MEO,23038.24325062,1 40349U 14083B   23038.24325062 -.00000019  00000-0  00000+0 0  6522,2 40349   0.0540 359.1789 0003216 328.3886  32.4073  5.00115486148735,0.054,0.0003216,5.00115486,359.1789,328.3886,32.4073
40349,O3B FM11,MEO,23038.44314142,1 40349U 14083B   23038.44314142 -.00000019  00000-0  00000-0 0    10,2 40349   0.0540 359.1987 0003219 328.9951  31.7815  5.00115485148596,0.054,0.0003219,5.00115485,359.1987,328.9951,31.7815
40349,O3B FM11,MEO,23038.84292257,1 40349U 14083B   23038.84292257 -.00000018  00000-0  00000-0 0    15,2 40349   0.0540 359.1108 0003217 329.3727  31.4921  5.00115503148603,0.054,0.0003217,5.00115503,359.1108,329.3727,31.4921
40349,O3B FM11,MEO,23039.44259500,1 40349U 14083B   23039.44259500 -.00000017  00000-0  00000-0 0    15,2 40349   0.0540 359.0634 0003218 330.0551  30.8578  5.00115476148634,0.054,0.0003218,5.00115476,359.0634,330.0551,30.8578
40349,O3B FM11,MEO,23039.64248550,1 40349U 14083B   23039.64248550 -.00000016  00000-0  00000-0 0    19,2 40349   0.0540 359.0439 0003217 330.1499  30.7825  5.00115489148658,0.054,0.0003217,5.00115489,359.0439,330.1499,30.7825
40349,O3B FM11,MEO,23040.24215799,1 40349U 14083B   23040.24215799 -.00000015  00000-0  00000-0 0    15,2 40349   0.0540 359.0217 0003219 330.7604  30.1949  5.00115456148686,0.054,0.0003219,5.00115456,359.0217,330.7604,30.1949
40349,O3B FM11,MEO,23040.64193942,1 40349U 14083B   23040.64193942 -.00000014  00000-0  00000-0 0    13,2 40349   0.0540 358.9656 0003219 331.1944  29.8174  5.00115453148708,0.054,0.0003219,5.00115453,358.9656,331.1944,29.8174
40349,O3B FM11,MEO,23041.04172074,1 40349U 14083B   23041.04172074 -.00000013  00000-0  00000-0 0    10,2 40349   0.0540 358.9387 0003220 331.6062  29.4330  5.00115458148724,0.054,0.000322,5.00115458,358.9387,331.6062,29.433
40349,O3B FM11,MEO,23041.64139295,1 40349U 14083B   23041.64139295 -.00000012  00000-0  00000-0 0    13,2 40349   0.0540 358.8948 0003222 332.2338  28.8498  5.00115445148758,0.054,0.0003222,5.00115445,358.8948,332.2338,28.8498
40349,O3B FM11,MEO,23042.44095585,1 40349U 14083B   23042.44095585 -.00000012  00000-0  00000+0 0  6537,2 40349   0.0540 358.8409 0003223 333.0968  28.0416  5.00115431148947,0.054,0.0003223,5.00115431,358.8409,333.0968,28.0416
40349,O3B FM11,MEO,23043.24051862,1 40349U 14083B   23043.24051862 -.00000011  00000-0  00000-0 0    13,2 40349   0.0540 358.8200 0003225 333.8909  27.2689  5.00115422148832,0.054,0.0003225,5.00115422,358.82,333.8909,27.2689
40349,O3B FM11,MEO,23044.43986286,1 40349U 14083B   23044.43986286 -.00000011  00000-0  00000-0 0    12,2 40349   0.0540 358.7443 0003227 335.0293  26.2068  5.00115389148890,0.054,0.0003227,5.00115389,358.7443,335.0293,26.2068
40349,O3B FM11,MEO,23045.43931564,1 40349U 14083B   23045.43931564 -.00000013  00000-0  00000-0 0    14,2 40349   0.0540 358.7646 0003230 335.9754  25.2406  5.00115409148944,0.054,0.000323,5.00115409,358.7646,335.9754,25.2406
40349,O3B FM11,MEO,23046.43876868,1 40349U 14083B   23046.43876868 -.00000014  00000-0  00000-0 0    11,2 40349   0.0540 358.7431 0003233 337.0741  24.1635  5.00115406148992,0.054,0.0003233,5.00115406,358.7431,337.0741,24.1635
40349,O3B FM11,MEO,23046.63865945,1 40349U 14083B   23046.63865945 -.00000015  00000-0  00000-0 0    18,2 40349   0.0540 358.7126 0003234 337.2625  24.0056  5.00115391149009,0.054,0.0003234,5.00115391,358.7126,337.2625,24.0056
40349,O3B FM11,MEO,23047.43822186,1 40349U 14083B   23047.43822186 -.00000016  00000-0  00000-0 0    18,2 40349   0.0540 358.7309 0003236 338.1023  23.1474  5.00115386149048,0.054,0.0003236,5.00115386,358.7309,338.1023,23.1474
40349,O3B FM11,MEO,23047.63811155,1 40349U 14083B   23047.63811155 -.00000017  00000-0  00000-0 0    15,2 40349   0.0540 358.7412 0003235 338.0442  23.1950  5.00115450149058,0.054,0.0003235,5.0011545,358.7412,338.0442,23.195
40349,O3B FM11,MEO,23048.43767383,1 40349U 14083B   23048.43767383 -.00000019  00000-0  00000-0 0    19,2 40349   0.0540 358.7172 0003238 338.8413  22.4217  5.00115454149096,0.054,0.0003238,5.00115454,358.7172,338.8413,22.4217
40349,O3B FM11,MEO,23048.63756444,1 40349U 14083B   23048.63756444 -.00000019  00000-0  00000-0 0    17,2 40349   0.0540 358.7394 0003238 338.9816  22.2592  5.00115450149102,0.054,0.0003238,5.0011545,358.7394,338.9816,22.2592
40349,O3B FM11,MEO,23049.43712738,1 40349U 14083B   23049.43712738 -.00000021  00000-0  00000-0 0    17,2 40349   0.0540 358.6901 0003241 339.7300  21.5600  5.00115402149149,0.054,0.0003241,5.00115402,358.6901,339.73,21.56
40349,O3B FM11,MEO,23050.43658055,1 40349U 14083B   23050.43658055 -.00000022  00000-0  00000-0 0    11,2 40349   0.0540 358.6760 0003243 340.6179  20.6861  5.00115396149195,0.054,0.0003243,5.00115396,358.676,340.6179,20.6861
40349,O3B FM11,MEO,23050.83636202,1 40349U 14083B   23050.83636202 -.00000023  00000-0  00000+0 0  6550,2 40349   0.0540 358.6460 0003243 340.9622  20.3719  5.00115381149360,0.054,0.0003243,5.00115381,358.646,340.9622,20.3719
40349,O3B FM11,MEO,23051.43603395,1 40349U 14083B   23051.43603395 -.00000023  00000-0  00000-0 0    10,2 40349   0.0539 358.5787 0003243 341.5133  19.8882  5.00115384149236,0.0539,0.0003243,5.00115384,358.5787,341.5133,19.8882
40349,O3B FM11,MEO,23052.43548705,1 40349U 14083B   23052.43548705 -.00000024  00000-0  00000-0 0    15,2 40349   0.0539 358.5405 0003243 342.3314  19.1088  5.00115408149286,0.0539,0.0003243,5.00115408,358.5405,342.3314,19.1088
40349,O3B FM11,MEO,23052.63537761,1 40349U 14083B   23052.63537761 -.00000024  00000-0  00000-0 0    17,2 40349   0.0539 358.5822 0003242 342.4969  18.9016  5.00115421149301,0.0539,0.0003242,5.00115421,358.5822,342.4969,18.9016
40349,O3B FM11,MEO,23053.43494039,1 40349U 14083B   23053.43494039 -.00000024  00000-0  00000-0 0    16,2 40349   0.0539 358.4959 0003241 343.1567  18.3287  5.00115423149331,0.0539,0.0003241,5.00115423,358.4959,343.1567,18.3287
40349,O3B FM11,MEO,23053.83472194,1 40349U 14083B   23053.83472194 -.00000024  00000-0  00000-0 0    18,2 40349   0.0539 358.4838 0003241 343.5119  17.9859  5.00115414149356,0.0539,0.0003241,5.00115414,358.4838,343.5119,17.9859
